CCSDS_OMM_VERS = 2.0
CREATION_DATE  = 
ORIGINATOR     = 

OBJECT_NAME    = STARLINK-36058
OBJECT_ID      = 2025-270D
CENTER_NAME    = EARTH
REF_FRAME      = TEME
TIME_SYSTEM    = UTC
MEAN_ELEMENT_THEORY = SGP/SGP4

EPOCH          = 2025-12-19T18:00:00.998784
MEAN_MOTION    = 15.46006282
ECCENTRICITY   = .0001499
INCLINATION    = 42.9988
RA_OF_ASC_NODE = 151.7503
ARG_OF_PERICENTER = 263.9193
MEAN_ANOMALY   = 59.4849

EPHEMERIS_TYPE = 0
CLASSIFICATION_TYPE = U
NORAD_CAT_ID   = 66591
ELEMENT_SET_NO = 999
REV_AT_EPOCH   = 552
BSTAR          = -.46105E-1
MEAN_MOTION_DOT = -.2049552E-1
MEAN_MOTION_DDOT = 0

CCSDS_OMM_VERS = 2.0
CREATION_DATE  = 
ORIGINATOR     = 

OBJECT_NAME    = STARLINK-36066
OBJECT_ID      = 2025-270E
CENTER_NAME    = EARTH
REF_FRAME      = TEME
TIME_SYSTEM    = UTC
MEAN_ELEMENT_THEORY = SGP/SGP4

EPOCH          = 2025-12-19T03:31:08.236704
MEAN_MOTION    = 15.40718174
ECCENTRICITY   = .00012951
INCLINATION    = 42.9987
RA_OF_ASC_NODE = 155.7395
ARG_OF_PERICENTER = 272.0620
MEAN_ANOMALY   = 88.0088

EPHEMERIS_TYPE = 0
CLASSIFICATION_TYPE = U
NORAD_CAT_ID   = 66592
ELEMENT_SET_NO = 999
REV_AT_EPOCH   = 523
BSTAR          = .69686524E-3
MEAN_MOTION_DOT = .28934E-3
MEAN_MOTION_DDOT = 0

CCSDS_OMM_VERS = 2.0
CREATION_DATE  = 
ORIGINATOR     = 

OBJECT_NAME    = STARLINK-36031
OBJECT_ID      = 2025-270F
CENTER_NAME    = EARTH
REF_FRAME      = TEME
TIME_SYSTEM    = UTC
MEAN_ELEMENT_THEORY = SGP/SGP4

EPOCH          = 2025-12-19T18:00:00.998784
MEAN_MOTION    = 15.40677681
ECCENTRICITY   = .0001648
INCLINATION    = 42.9994
RA_OF_ASC_NODE = 152.0545
ARG_OF_PERICENTER = 271.7792
MEAN_ANOMALY   = 286.0383

EPHEMERIS_TYPE = 0
CLASSIFICATION_TYPE = U
NORAD_CAT_ID   = 66593
ELEMENT_SET_NO = 999
REV_AT_EPOCH   = 552
BSTAR          = .57774E-3
MEAN_MOTION_DOT = .23888E-3
MEAN_MOTION_DDOT = 0

CCSDS_OMM_VERS = 2.0
CREATION_DATE  = 
ORIGINATOR     = 

OBJECT_NAME    = STARLINK-36032
OBJECT_ID      = 2025-270G
CENTER_NAME    = EARTH
REF_FRAME      = TEME
TIME_SYSTEM    = UTC
MEAN_ELEMENT_THEORY = SGP/SGP4

EPOCH          = 2025-12-19T18:00:00.998784
MEAN_MOTION    = 15.40619404
ECCENTRICITY   = .0001388
INCLINATION    = 43.0000
RA_OF_ASC_NODE = 151.8132
ARG_OF_PERICENTER = 253.1882
MEAN_ANOMALY   = 44.1622

EPHEMERIS_TYPE = 0
CLASSIFICATION_TYPE = U
NORAD_CAT_ID   = 66594
ELEMENT_SET_NO = 999
REV_AT_EPOCH   = 526
BSTAR          = .10133E-2
MEAN_MOTION_DOT = .42146E-3
MEAN_MOTION_DDOT = 0

CCSDS_OMM_VERS = 2.0
CREATION_DATE  = 
ORIGINATOR     = 

OBJECT_NAME    = STARLINK-35711
OBJECT_ID      = 2025-270H
CENTER_NAME    = EARTH
REF_FRAME      = TEME
TIME_SYSTEM    = UTC
MEAN_ELEMENT_THEORY = SGP/SGP4

EPOCH          = 2025-12-19T11:54:18.274176
MEAN_MOTION    = 15.50601138
ECCENTRICITY   = .0001396
INCLINATION    = 42.9989
RA_OF_ASC_NODE = 153.1927
ARG_OF_PERICENTER = 272.2206
MEAN_ANOMALY   = 87.8494

EPHEMERIS_TYPE = 0
CLASSIFICATION_TYPE = U
NORAD_CAT_ID   = 66595
ELEMENT_SET_NO = 999
REV_AT_EPOCH   = 550
BSTAR          = .87002E-3
MEAN_MOTION_DOT = .51072E-3
MEAN_MOTION_DDOT = 0

CCSDS_OMM_VERS = 2.0
CREATION_DATE  = 
ORIGINATOR     = 

OBJECT_NAME    = STARLINK-35811
OBJECT_ID      = 2025-270J
CENTER_NAME    = EARTH
REF_FRAME      = TEME
TIME_SYSTEM    = UTC
MEAN_ELEMENT_THEORY = SGP/SGP4

EPOCH          = 2025-12-19T17:37:46.137792
MEAN_MOTION    = 15.40716596
ECCENTRICITY   = .0001838
INCLINATION    = 42.9991
RA_OF_ASC_NODE = 152.4119
ARG_OF_PERICENTER = 270.0462
MEAN_ANOMALY   = 90.0184

EPHEMERIS_TYPE = 0
CLASSIFICATION_TYPE = U
NORAD_CAT_ID   = 66596
ELEMENT_SET_NO = 999
REV_AT_EPOCH   = 553
BSTAR          = .73699E-3
MEAN_MOTION_DOT = .30623E-3
MEAN_MOTION_DDOT = 0

CCSDS_OMM_VERS = 2.0
CREATION_DATE  = 
ORIGINATOR     = 

OBJECT_NAME    = STARLINK-35820
OBJECT_ID      = 2025-270K
CENTER_NAME    = EARTH
REF_FRAME      = TEME
TIME_SYSTEM    = UTC
MEAN_ELEMENT_THEORY = SGP/SGP4

EPOCH          = 2025-12-19T17:24:51.872832
MEAN_MOTION    = 15.40703318
ECCENTRICITY   = .0001481
INCLINATION    = 42.9992
RA_OF_ASC_NODE = 152.3420
ARG_OF_PERICENTER = 270.4129
MEAN_ANOMALY   = 89.6558

EPHEMERIS_TYPE = 0
CLASSIFICATION_TYPE = U
NORAD_CAT_ID   = 66597
ELEMENT_SET_NO = 999
REV_AT_EPOCH   = 553
BSTAR          = .42249E-3
MEAN_MOTION_DOT = .17387E-3
MEAN_MOTION_DDOT = 0

CCSDS_OMM_VERS = 2.0
CREATION_DATE  = 
ORIGINATOR     = 

OBJECT_NAME    = STARLINK-35981
OBJECT_ID      = 2025-270L
CENTER_NAME    = EARTH
REF_FRAME      = TEME
TIME_SYSTEM    = UTC
MEAN_ELEMENT_THEORY = SGP/SGP4

EPOCH          = 2025-12-19T18:00:00.998784
MEAN_MOTION    = 15.40676755
ECCENTRICITY   = .0001915
INCLINATION    = 42.9996
RA_OF_ASC_NODE = 151.9929
ARG_OF_PERICENTER = 277.8810
MEAN_ANOMALY   = 304.8181

EPHEMERIS_TYPE = 0
CLASSIFICATION_TYPE = U
NORAD_CAT_ID   = 66598
ELEMENT_SET_NO = 999
REV_AT_EPOCH   = 536
BSTAR          = .62189E-3
MEAN_MOTION_DOT = .25742E-3
MEAN_MOTION_DDOT = 0

CCSDS_OMM_VERS = 2.0
CREATION_DATE  = 
ORIGINATOR     = 

OBJECT_NAME    = STARLINK-35930
OBJECT_ID      = 2025-270M
CENTER_NAME    = EARTH
REF_FRAME      = TEME
TIME_SYSTEM    = UTC
MEAN_ELEMENT_THEORY = SGP/SGP4

EPOCH          = 2025-12-19T04:08:36.625632
MEAN_MOTION    = 15.50348464
ECCENTRICITY   = .0002903
INCLINATION    = 42.9985
RA_OF_ASC_NODE = 155.0670
ARG_OF_PERICENTER = 324.1890
MEAN_ANOMALY   = 35.8775

EPHEMERIS_TYPE = 0
CLASSIFICATION_TYPE = U
NORAD_CAT_ID   = 66599
ELEMENT_SET_NO = 999
REV_AT_EPOCH   = 534
BSTAR          = -.2964998E-5
MEAN_MOTION_DOT = -.514E-5
MEAN_MOTION_DDOT = 0

CCSDS_OMM_VERS = 2.0
CREATION_DATE  = 
ORIGINATOR     = 

OBJECT_NAME    = STARLINK-35980
OBJECT_ID      = 2025-270N
CENTER_NAME    = EARTH
REF_FRAME      = TEME
TIME_SYSTEM    = UTC
MEAN_ELEMENT_THEORY = SGP/SGP4

EPOCH          = 2025-12-19T18:00:00.998784
MEAN_MOTION    = 15.40682800
ECCENTRICITY   = .0001981
INCLINATION    = 42.9998
RA_OF_ASC_NODE = 151.8723
ARG_OF_PERICENTER = 281.7052
MEAN_ANOMALY   = 350.7442

EPHEMERIS_TYPE = 0
CLASSIFICATION_TYPE = U
NORAD_CAT_ID   = 66600
ELEMENT_SET_NO = 999
REV_AT_EPOCH   = 542
BSTAR          = .56454E-3
MEAN_MOTION_DOT = .23338E-3
MEAN_MOTION_DDOT = 0

CCSDS_OMM_VERS = 2.0
CREATION_DATE  = 
ORIGINATOR     = 

OBJECT_NAME    = STARLINK-35978
OBJECT_ID      = 2025-270P
CENTER_NAME    = EARTH
REF_FRAME      = TEME
TIME_SYSTEM    = UTC
MEAN_ELEMENT_THEORY = SGP/SGP4

EPOCH          = 2025-12-19T18:48:31.837248
MEAN_MOTION    = 15.40749629
ECCENTRICITY   = .0001573
INCLINATION    = 43.0003
RA_OF_ASC_NODE = 151.9165
ARG_OF_PERICENTER = 292.4203
MEAN_ANOMALY   = 67.6487

EPHEMERIS_TYPE = 0
CLASSIFICATION_TYPE = U
NORAD_CAT_ID   = 66601
ELEMENT_SET_NO = 999
REV_AT_EPOCH   = 527
BSTAR          = .1191E-2
MEAN_MOTION_DOT = .49854E-3
MEAN_MOTION_DDOT = 0

CCSDS_OMM_VERS = 2.0
CREATION_DATE  = 
ORIGINATOR     = 

OBJECT_NAME    = STARLINK-36050
OBJECT_ID      = 2025-270Q
CENTER_NAME    = EARTH
REF_FRAME      = TEME
TIME_SYSTEM    = UTC
MEAN_ELEMENT_THEORY = SGP/SGP4

EPOCH          = 2025-12-19T17:34:32.506752
MEAN_MOTION    = 15.40725936
ECCENTRICITY   = .000163
INCLINATION    = 42.9991
RA_OF_ASC_NODE = 152.3934
ARG_OF_PERICENTER = 264.4094
MEAN_ANOMALY   = 95.6576

EPHEMERIS_TYPE = 0
CLASSIFICATION_TYPE = U
NORAD_CAT_ID   = 66602
ELEMENT_SET_NO = 999
REV_AT_EPOCH   = 532
BSTAR          = .96254E-3
MEAN_MOTION_DOT = .40151E-3
MEAN_MOTION_DDOT = 0

