STARLINK-36058          
1 66591U 25270D   25353.75001156 -.02049552  00000+0 -46105-1 0  9991
2 66591  42.9988 151.7503 0001499 263.9193  59.4849 15.46006282  5522
STARLINK-36066          
1 66592U 25270E   25353.14662311  .00028934  00000+0  69687-3 0  9990
2 66592  42.9987 155.7395 0001295 272.0620  88.0088 15.40718174  5230
STARLINK-36031          
1 66593U 25270F   25353.75001156  .00023888  00000+0  57774-3 0  9999
2 66593  42.9994 152.0545 0001648 271.7792 286.0383 15.40677681  5521
STARLINK-36032          
1 66594U 25270G   25353.75001156  .00042146  00000+0  10133-2 0  9995
2 66594  43.0000 151.8132 0001388 253.1882  44.1622 15.40619404  5265
STARLINK-35711          
1 66595U 25270H   25353.49604484  .00051072  00000+0  87002-3 0  9998
2 66595  42.9989 153.1927 0001396 272.2206  87.8494 15.50601138  5502
STARLINK-35811          
1 66596U 25270J   25353.73456178  .00030623  00000+0  73699-3 0  9997
2 66596  42.9991 152.4119 0001838 270.0462  90.0184 15.40716596  5531
STARLINK-35820          
1 66597U 25270K   25353.72560038  .00017387  00000+0  42249-3 0  9997
2 66597  42.9992 152.3420 0001481 270.4129  89.6558 15.40703318  5532
STARLINK-35981          
1 66598U 25270L   25353.75001156  .00025742  00000+0  62189-3 0  9991
2 66598  42.9996 151.9929 0001915 277.8810 304.8181 15.40676755  5365
STARLINK-35930          
1 66599U 25270M   25353.17264613 -.00000514  00000+0 -29650-5 0  9997
2 66599  42.9985 155.0670 0002903 324.1890  35.8775 15.50348464  5346
STARLINK-35980          
1 66600U 25270N   25353.75001156  .00023338  00000+0  56454-3 0  9992
2 66600  42.9998 151.8723 0001981 281.7052 350.7442 15.40682800  5422
STARLINK-35978          
1 66601U 25270P   25353.78370182  .00049854  00000+0  11910-2 0  9992
2 66601  43.0003 151.9165 0001573 292.4203  67.6487 15.40749629  5276
STARLINK-36050          
1 66602U 25270Q   25353.73232068  .00040151  00000+0  96254-3 0  9994
2 66602  42.9991 152.3934 0001630 264.4094  95.6576 15.40725936  5322
